COMMENT,ORIGINATOR,NORAD_CAT_ID,OBJECT_NAME,OBJECT_TYPE,CLASSIFICATION_TYPE,INTLDES,EPOCH,EPOCH_MICROSECONDS,MEAN_MOTION,ECCENTRICITY,INCLINATION,RA_OF_ASC_NODE,ARG_OF_PERICENTER,MEAN_ANOMALY,EPHEMERIS_TYPE,ELEMENT_SET_NO,REV_AT_EPOCH,BSTAR,MEAN_MOTION_DOT,MEAN_MOTION_DDOT,FILE,TLE_LINE0,TLE_LINE1,TLE_LINE2,OBJECT_ID,OBJECT_NUMBER,SEMIMAJOR_AXIS,PERIOD,APOGEE,PERIGEE,DECAYED
"GENERATED VIA SPACETRACK.ORG API","18 SPCS","55101","SPACEBEE-159","PAYLOAD","U","23001CW","2024-04-20 17:38:49","11072","15.43126033","0.0008385","97.4255","177.625","352.4493","7.6626","0","999","7226","0.0019563","0.00087455","0","4292116","0 SPACEBEE-159","1 55101U 23001CW  24111.73528948  .00087455  00000-0  19563-2 0  9998","2 55101  97.4255 177.6250 0008385 352.4493   7.6626 15.43126033 72260","2023-001CW","55101","6815.027","93.317","442.606","431.178","0"
"GENERATED VIA SPACETRACK.ORG API","18 SPCS","55101","SPACEBEE-159","PAYLOAD","U","23001CW","2024-04-21 02:59:03","725952","15.43217152","0.0008474","97.4254","178.021","350.8274","9.2817","0","999","7232","0.0018597","0.00083345","0","4292725","0 SPACEBEE-159","1 55101U 23001CW  24112.12434868  .00083345  00000-0  18597-2 0  9999","2 55101  97.4254 178.0210 0008474 350.8274   9.2817 15.43217152 72328","2023-001CW","55101","6814.759","93.312","442.398","430.849","0"
"GENERATED VIA SPACETRACK.ORG API","18 SPCS","55101","SPACEBEE-159","PAYLOAD","U","23001CW","2024-04-21 02:59:03","725952","15.43217152","0.0008474","97.4254","178.021","350.8274","9.2817","0","999","7232","0.0018597","0.00083345","0","4292766","0 SPACEBEE-159","1 55101U 23001CW  24112.12434868  .00083345  00000-0  18597-2 0  9999","2 55101  97.4254 178.0210 0008474 350.8274   9.2817 15.43217152 72328","2023-001CW","55101","6814.759","93.312","442.398","430.849","0"
"GENERATED VIA SPACETRACK.ORG API","18 SPCS","55101","SPACEBEE-159","PAYLOAD","U","23001CW","2024-04-21 16:59:22","229952","15.43364712","0.0008288","97.4248","178.6161","348.9035","11.2028","0","999","7241","0.002706","0.0012252","0","4293391","0 SPACEBEE-159","1 55101U 23001CW  24112.70789618  .00122520  00000-0  27060-2 0  9993","2 55101  97.4248 178.6161 0008288 348.9035  11.2028 15.43364712 72410","2023-001CW","55101","6814.324","93.303","441.837","430.542","0"
"GENERATED VIA SPACETRACK.ORG API","18 SPCS","55101","SPACEBEE-159","PAYLOAD","U","23001CW","2024-04-21 16:59:22","229952","15.43364712","0.0008288","97.4248","178.6161","348.9035","11.2028","0","999","7241","0.002706","0.0012252","0","4293451","0 SPACEBEE-159","1 55101U 23001CW  24112.70789618  .00122520  00000-0  27060-2 0  9993","2 55101  97.4248 178.6161 0008288 348.9035  11.2028 15.43364712 72410","2023-001CW","55101","6814.324","93.303","441.837","430.542","0"
"GENERATED VIA SPACETRACK.ORG API","18 SPCS","55101","SPACEBEE-159","PAYLOAD","U","23001CW","2024-04-22 03:52:53","306112","15.43482245","0.0008161","97.4248","179.0789","346.9513","13.1522","0","999","7248","0.0025814","0.00117254","0","4294713","0 SPACEBEE-159","1 55101U 23001CW  24113.16172808  .00117254  00000-0  25814-2 0  9994","2 55101  97.4248 179.0789 0008161 346.9513  13.1522 15.43482245 72489","2023-001CW","55101","6813.978","93.296","441.404","430.282","0"
"GENERATED VIA SPACETRACK.ORG API","18 SPCS","55101","SPACEBEE-159","PAYLOAD","U","23001CW","2024-04-22 17:53:03","742944","15.4360489","0.0008254","97.4244","179.6743","344.1073","15.9915","0","999","7257","0.002358","0.00107409","0","4295328","0 SPACEBEE-159","1 55101U 23001CW  24113.74518221  .00107409  00000-0  23580-2 0  9990","2 55101  97.4244 179.6743 0008254 344.1073  15.9915 15.43604890 72573","2023-001CW","55101","6813.617","93.288","441.106","429.858","0"
"GENERATED VIA SPACETRACK.ORG API","18 SPCS","55101","SPACEBEE-159","PAYLOAD","U","23001CW","2024-04-22 17:53:03","742944","15.4360489","0.0008254","97.4244","179.6743","344.1073","15.9915","0","999","7257","0.002358","0.00107409","0","4295412","0 SPACEBEE-159","1 55101U 23001CW  24113.74518221  .00107409  00000-0  23580-2 0  9990","2 55101  97.4244 179.6743 0008254 344.1073  15.9915 15.43604890 72573","2023-001CW","55101","6813.617","93.288","441.106","429.858","0"
"GENERATED VIA SPACETRACK.ORG API","18 SPCS","55101","SPACEBEE-159","PAYLOAD","U","23001CW","2024-04-23 03:13:08","165856","15.43697765","0.0008111","97.4245","180.0705","341.4484","18.6467","0","999","7263","0.002309","0.00105473","0","4296658","0 SPACEBEE-159","1 55101U 23001CW  24114.13412229  .00105473  00000-0  23090-2 0  9990","2 55101  97.4245 180.0705 0008111 341.4484  18.6467 15.43697765 72638","2023-001CW","55101","6813.344","93.283","440.735","429.683","0"
"GENERATED VIA SPACETRACK.ORG API","18 SPCS","55101","SPACEBEE-159","PAYLOAD","U","23001CW","2024-04-23 17:13:11","464320","15.43822147","0.0008265","97.4244","180.6663","339.022","21.0688","0","999","7272","0.0021973","0.00100731","0","4296919","0 SPACEBEE-159","1 55101U 23001CW  24114.71749380  .00100731  00000-0  21973-2 0  9995","2 55101  97.4244 180.6663 0008265 339.0220  21.0688 15.43822147 72724","2023-001CW","55101","6812.978","93.275","440.474","429.212","0"
"GENERATED VIA SPACETRACK.ORG API","18 SPCS","55101","SPACEBEE-159","PAYLOAD","U","23001CW","2024-04-23 17:13:11","464320","15.43822147","0.0008265","97.4244","180.6663","339.022","21.0688","0","999","7272","0.0021973","0.00100731","0","4296933","0 SPACEBEE-159","1 55101U 23001CW  24114.71749380  .00100731  00000-0  21973-2 0  9995","2 55101  97.4244 180.6663 0008265 339.0220  21.0688 15.43822147 72724","2023-001CW","55101","6812.978","93.275","440.474","429.212","0"
"GENERATED VIA SPACETRACK.ORG API","18 SPCS","55101","SPACEBEE-159","PAYLOAD","U","23001CW","2024-04-24 04:06:30","873024","15.43937832","0.0008176","97.4242","181.1292","336.4069","23.6803","0","999","7279","0.0023383","0.00107712","0","4297236","0 SPACEBEE-159","1 55101U 23001CW  24115.17119066  .00107712  00000-0  23383-2 0  9991","2 55101  97.4242 181.1292 0008176 336.4069  23.6803 15.43937832 72791","2023-001CW","55101","6812.638","93.268","440.073","428.933","0"
"GENERATED VIA SPACETRACK.ORG API","18 SPCS","55101","SPACEBEE-159","PAYLOAD","U","23001CW","2024-04-24 04:06:30","873024","15.43937832","0.0008176","97.4242","181.1292","336.4069","23.6803","0","999","7279","0.0023383","0.00107712","0","4297616","0 SPACEBEE-159","1 55101U 23001CW  24115.17119066  .00107712  00000-0  23383-2 0  9991","2 55101  97.4242 181.1292 0008176 336.4069  23.6803 15.43937832 72791","2023-001CW","55101","6812.638","93.268","440.073","428.933","0"
"GENERATED VIA SPACETRACK.ORG API","18 SPCS","55101","SPACEBEE-159","PAYLOAD","U","23001CW","2024-04-24 16:33:07","147584","15.44041058","0.0008241","97.4238","181.6589","333.8436","26.2395","0","999","7287","0.0020322","0.00093761","0","4297865","0 SPACEBEE-159","1 55101U 23001CW  24115.68966606  .00093761  00000-0  20322-2 0  9995","2 55101  97.4238 181.6589 0008241 333.8436  26.2395 15.44041058 72873","2023-001CW","55101","6812.334","93.262","439.813","428.585","0"
"GENERATED VIA SPACETRACK.ORG API","18 SPCS","55101","SPACEBEE-159","PAYLOAD","U","23001CW","2024-04-25 09:39:36","781056","15.44188379","0.0008235","97.4239","182.3863","330.1587","29.919","0","999","7298","0.0020581","0.00095451","0","4298461","0 SPACEBEE-159","1 55101U 23001CW  24116.40250904  .00095451  00000-0  20581-2 0  9998","2 55101  97.4239 182.3863 0008235 330.1587  29.9190 15.44188379 72980","2023-001CW","55101","6811.901","93.253","439.376","428.156","0"
"GENERATED VIA SPACETRACK.ORG API","18 SPCS","55101","SPACEBEE-159","PAYLOAD","U","23001CW","2024-04-25 09:39:36","781056","15.44188379","0.0008235","97.4239","182.3863","330.1587","29.919","0","999","7298","0.0020581","0.00095451","0","4298476","0 SPACEBEE-159","1 55101U 23001CW  24116.40250904  .00095451  00000-0  20581-2 0  9998","2 55101  97.4239 182.3863 0008235 330.1587  29.9190 15.44188379 72980","2023-001CW","55101","6811.901","93.253","439.376","428.156","0"
"GENERATED VIA SPACETRACK.ORG API","18 SPCS","55101","SPACEBEE-159","PAYLOAD","U","23001CW","2024-04-25 17:26:10","250592","15.44255384","0.0008329","97.4239","182.7171","328.7092","31.3659","0","999","7303","0.0020828","0.00096836","0","4298762","0 SPACEBEE-159","1 55101U 23001CW  24116.72650753  .00096836  00000-0  20828-2 0  9991","2 55101  97.4239 182.7171 0008329 328.7092  31.3659 15.44255384 73039","2023-001CW","55101","6811.704","93.249","439.242","427.895","0"
"GENERATED VIA SPACETRACK.ORG API","18 SPCS","55101","SPACEBEE-159","PAYLOAD","U","23001CW","2024-04-26 02:46:00","778656","15.44340783","0.0008258","97.4238","183.1138","326.8301","33.2429","0","999","7309","0.0023479","0.00109665","0","4299032","0 SPACEBEE-159","1 55101U 23001CW  24117.11528679  .00109665  00000-0  23479-2 0  9996","2 55101  97.4238 183.1138 0008258 326.8301  33.2429 15.44340783 73099","2023-001CW","55101","6811.453","93.244","438.943","427.693","0"
"GENERATED VIA SPACETRACK.ORG API","18 SPCS","55101","SPACEBEE-159","PAYLOAD","U","23001CW","2024-04-26 10:32:31","491168","15.44403136","0.0008234","97.4235","183.4452","325.5864","34.485","0","999","7314","0.0022002","0.00102888","0","4299439","0 SPACEBEE-159","1 55101U 23001CW  24117.43925337  .00102888  00000-0  22002-2 0  9994","2 55101  97.4235 183.4452 0008234 325.5864  34.4850 15.44403136 73141","2023-001CW","55101","6811.269","93.240","438.743","427.526","0"
"GENERATED VIA SPACETRACK.ORG API","18 SPCS","55101","SPACEBEE-159","PAYLOAD","U","23001CW","2024-04-26 16:45:43","208928","15.44463192","0.0008265","97.4233","183.71","324.4099","35.6597","0","999","7318","0.0023647","0.00110926","0","4299721","0 SPACEBEE-159","1 55101U 23001CW  24117.69841677  .00110926  00000-0  23647-2 0  9994","2 55101  97.4233 183.7100 0008265 324.4099  35.6597 15.44463192 73187","2023-001CW","55101","6811.093","93.236","438.587","427.328","0"
